{
"type": "FeatureCollection",
"name": "route250805saksa",
"crs": { "type": "name", "properties": { "name": "urn:ogc:def:crs:OGC:1.3:CRS84" } },
"features": [
{ "type": "Feature", "properties": { "distance": 75.658898, "duration": 57.08335 }, "geometry": { "type": "LineString", "coordinates": [ [ 11.782163, 48.35924 ], [ 11.771655, 48.353718 ], [ 11.739108, 48.350845 ], [ 11.726662, 48.350715 ], [ 11.70068, 48.334494 ], [ 11.662191, 48.331368 ], [ 11.636291, 48.32381 ], [ 11.546939, 48.276364 ], [ 11.532619, 48.253166 ], [ 11.542424, 48.231349 ], [ 11.540212, 48.226538 ], [ 11.493323, 48.210256 ], [ 11.44624, 48.204415 ], [ 11.437231, 48.200535 ], [ 11.431409, 48.18004 ], [ 11.395185, 48.151173 ], [ 11.402376, 48.129139 ], [ 11.396435, 48.119766 ], [ 11.352025, 48.111475 ], [ 11.320793, 48.096585 ], [ 11.31353, 48.09739 ], [ 11.314476, 48.093814 ], [ 11.318393, 48.08384 ], [ 11.304135, 48.049883 ], [ 11.317686, 48.037094 ], [ 11.293879, 48.021333 ], [ 11.29496, 47.999481 ], [ 11.272667, 48.001313 ], [ 11.231089, 47.976641 ], [ 11.189442, 47.968066 ], [ 11.188482, 47.968181 ], [ 11.188343, 47.969175 ], [ 11.18521, 47.969248 ], [ 11.185102, 47.973264 ] ] } },
{ "type": "Feature", "properties": { "distance": 40.710004, "duration": 43.867533333333334 }, "geometry": { "type": "LineString", "coordinates": [ [ 11.185102, 47.973264 ], [ 11.184274, 47.970297 ], [ 11.184772, 47.967011 ], [ 11.177037, 47.964475 ], [ 11.168754, 47.944002 ], [ 11.16895, 47.93399 ], [ 11.155231, 47.928603 ], [ 11.163729, 47.911344 ], [ 11.161799, 47.902688 ], [ 11.168345, 47.894898 ], [ 11.168052, 47.883467 ], [ 11.172499, 47.873596 ], [ 11.151394, 47.848117 ], [ 11.145222, 47.840644 ], [ 11.1441, 47.833919 ], [ 11.138855, 47.833765 ], [ 11.132518, 47.820294 ], [ 11.117244, 47.819153 ], [ 11.111933, 47.815255 ], [ 11.104703, 47.815781 ], [ 11.084867, 47.804383 ], [ 11.082311, 47.784607 ], [ 11.074404, 47.778456 ], [ 11.05172, 47.782317 ], [ 11.036518, 47.780895 ], [ 11.02874, 47.786789 ], [ 11.006886, 47.785101 ], [ 10.992506, 47.791108 ], [ 10.986264, 47.799801 ], [ 10.964224, 47.800303 ], [ 10.961694, 47.800883 ], [ 10.950017, 47.804739 ], [ 10.937918, 47.805018 ], [ 10.929221, 47.803448 ], [ 10.921956, 47.798317 ], [ 10.921924, 47.797142 ] ] } },
{ "type": "Feature", "properties": { "distance": 32.43517, "duration": 34.768666666666668 }, "geometry": { "type": "LineString", "coordinates": [ [ 10.921924, 47.797142 ], [ 10.921702, 47.797282 ], [ 10.90941, 47.783232 ], [ 10.899059, 47.755069 ], [ 10.884472, 47.740105 ], [ 10.885122, 47.730951 ], [ 10.89115, 47.726523 ], [ 10.8883, 47.71842 ], [ 10.880455, 47.711345 ], [ 10.860265, 47.701808 ], [ 10.860972, 47.688653 ], [ 10.852317, 47.668546 ], [ 10.838813, 47.653393 ], [ 10.830581, 47.648658 ], [ 10.820125, 47.627487 ], [ 10.80977, 47.621142 ], [ 10.797182, 47.605491 ], [ 10.781369, 47.593598 ], [ 10.751833, 47.582024 ], [ 10.741129, 47.557838 ], [ 10.740718, 47.557829 ] ] } },
{ "type": "Feature", "properties": { "distance": 0.883026, "duration": 15.532983333333334 }, "geometry": { "type": "LineString", "coordinates": [ [ 10.740718, 47.557829 ], [ 10.741129, 47.557838 ], [ 10.740799, 47.556452 ], [ 10.741458, 47.556373 ], [ 10.741692, 47.556457 ], [ 10.741884, 47.556416 ], [ 10.742093, 47.556492 ], [ 10.742383, 47.556739 ], [ 10.742833, 47.556902 ], [ 10.743029, 47.556903 ], [ 10.743694, 47.556589 ], [ 10.743763, 47.556592 ], [ 10.74403, 47.557239 ], [ 10.744274, 47.557431 ], [ 10.744391, 47.557457 ], [ 10.744561, 47.557378 ], [ 10.744637, 47.55715 ], [ 10.744688, 47.557124 ], [ 10.744985, 47.557198 ], [ 10.745083, 47.557177 ], [ 10.745142, 47.557111 ], [ 10.745083, 47.556704 ], [ 10.744778, 47.556299 ], [ 10.744762, 47.556193 ], [ 10.744823, 47.55611 ], [ 10.744883, 47.556103 ], [ 10.744943, 47.556149 ], [ 10.745081, 47.556345 ], [ 10.745295, 47.556391 ], [ 10.745769, 47.555977 ], [ 10.74583, 47.55603 ] ] } },
{ "type": "Feature", "properties": { "distance": 1.984022, "duration": 28.926583333333333 }, "geometry": { "type": "LineString", "coordinates": [ [ 10.74583, 47.55603 ], [ 10.745283, 47.555334 ], [ 10.744429, 47.555132 ], [ 10.743691, 47.554836 ], [ 10.743116, 47.554222 ], [ 10.742712, 47.553944 ], [ 10.741287, 47.553571 ], [ 10.74, 47.553783 ], [ 10.73971, 47.553185 ], [ 10.73974, 47.553038 ], [ 10.740855, 47.55281 ], [ 10.741475, 47.552579 ], [ 10.741772, 47.55257 ], [ 10.742415, 47.552681 ], [ 10.742987, 47.552995 ], [ 10.74342, 47.552999 ], [ 10.744506, 47.553227 ], [ 10.745168, 47.553246 ], [ 10.745708, 47.553354 ], [ 10.745785, 47.553435 ], [ 10.745557, 47.553956 ], [ 10.745678, 47.55401 ], [ 10.746927, 47.553887 ], [ 10.747201, 47.553922 ], [ 10.747321, 47.554044 ], [ 10.747185, 47.554564 ], [ 10.747347, 47.554646 ], [ 10.747976, 47.554675 ], [ 10.747723, 47.555329 ], [ 10.747514, 47.555459 ], [ 10.746979, 47.555512 ], [ 10.746931, 47.555667 ], [ 10.74756, 47.555901 ], [ 10.747959, 47.556154 ], [ 10.748275, 47.556515 ], [ 10.748344, 47.557275 ], [ 10.749716, 47.557899 ] ] } },
{ "type": "Feature", "properties": { "distance": 1.95674, "duration": 24.053666666666668 }, "geometry": { "type": "LineString", "coordinates": [ [ 10.749716, 47.557899 ], [ 10.748344, 47.557275 ], [ 10.748275, 47.556515 ], [ 10.747959, 47.556154 ], [ 10.74756, 47.555901 ], [ 10.746931, 47.555667 ], [ 10.746979, 47.555512 ], [ 10.747514, 47.555459 ], [ 10.747723, 47.555329 ], [ 10.747976, 47.554675 ], [ 10.747347, 47.554646 ], [ 10.747185, 47.554564 ], [ 10.747321, 47.554044 ], [ 10.747201, 47.553922 ], [ 10.746927, 47.553887 ], [ 10.745678, 47.55401 ], [ 10.745557, 47.553956 ], [ 10.745785, 47.553435 ], [ 10.745708, 47.553354 ], [ 10.745168, 47.553246 ], [ 10.744506, 47.553227 ], [ 10.74342, 47.552999 ], [ 10.742987, 47.552995 ], [ 10.742415, 47.552681 ], [ 10.741475, 47.552579 ], [ 10.740855, 47.55281 ], [ 10.73974, 47.553038 ], [ 10.73971, 47.553185 ], [ 10.74, 47.553783 ], [ 10.740591, 47.553725 ], [ 10.741092, 47.554213 ], [ 10.741122, 47.554172 ], [ 10.7421, 47.55492 ], [ 10.743154, 47.555482 ], [ 10.743024, 47.555855 ], [ 10.742871, 47.555997 ], [ 10.743097, 47.556408 ], [ 10.743441, 47.556716 ], [ 10.742897, 47.556902 ] ] } },
{ "type": "Feature", "properties": { "distance": 106.499555, "duration": 91.913166666666669 }, "geometry": { "type": "LineString", "coordinates": [ [ 10.740718, 47.557829 ], [ 10.740263, 47.557877 ], [ 10.740274, 47.557831 ], [ 10.740031, 47.557828 ], [ 10.74062, 47.556726 ], [ 10.740429, 47.556677 ], [ 10.725915, 47.565395 ], [ 10.716114, 47.56551 ], [ 10.700449, 47.569653 ], [ 10.706631, 47.580458 ], [ 10.707513, 47.58324 ], [ 10.66392, 47.574274 ], [ 10.65555, 47.605537 ], [ 10.661513, 47.619119 ], [ 10.654552, 47.626135 ], [ 10.582162, 47.628533 ], [ 10.550059, 47.64103 ], [ 10.503605, 47.641296 ], [ 10.468864, 47.65295 ], [ 10.430745, 47.656324 ], [ 10.406337, 47.675525 ], [ 10.381547, 47.67492 ], [ 10.370737, 47.682483 ], [ 10.367982, 47.68781 ], [ 10.292364, 47.680058 ], [ 10.262925, 47.668498 ], [ 10.192003, 47.667136 ], [ 10.163497, 47.65488 ], [ 10.103601, 47.641901 ], [ 10.08651, 47.644824 ], [ 10.095314, 47.67008 ], [ 10.072548, 47.687617 ], [ 10.053062, 47.686842 ], [ 10.037029, 47.678925 ], [ 10.021638, 47.685583 ], [ 9.973396, 47.678054 ], [ 9.953553, 47.67326 ], [ 9.941084, 47.661317 ], [ 9.903361, 47.660476 ], [ 9.871816, 47.665662 ], [ 9.834225, 47.650754 ], [ 9.790536, 47.619827 ], [ 9.774969, 47.615591 ], [ 9.733169, 47.593549 ], [ 9.733545, 47.551857 ], [ 9.7289, 47.548511 ], [ 9.724971, 47.547363 ], [ 9.73396, 47.537942 ] ] } },
{ "type": "Feature", "properties": { "distance": 61.715734, "duration": 54.525416666666665 }, "geometry": { "type": "LineString", "coordinates": [ [ 9.73396, 47.537942 ], [ 9.725067, 47.547344 ], [ 9.728379, 47.548177 ], [ 9.730472, 47.548976 ], [ 9.766555, 47.532744 ], [ 9.76667, 47.502011 ], [ 9.744528, 47.486993 ], [ 9.736991, 47.467848 ], [ 9.722365, 47.45848 ], [ 9.720621, 47.43268 ], [ 9.703442, 47.407019 ], [ 9.638928, 47.353096 ], [ 9.636571, 47.353308 ], [ 9.629406, 47.352697 ], [ 9.618105, 47.355179 ], [ 9.609723, 47.359298 ], [ 9.596586, 47.345702 ], [ 9.583887, 47.316646 ], [ 9.55498, 47.298848 ], [ 9.54633, 47.282601 ], [ 9.529485, 47.272046 ], [ 9.486346, 47.193491 ], [ 9.485382, 47.173851 ], [ 9.485981, 47.170969 ], [ 9.486899, 47.168396 ], [ 9.508955, 47.167359 ], [ 9.507816, 47.163834 ], [ 9.508468, 47.163759 ], [ 9.51106, 47.15221 ], [ 9.524859, 47.139163 ], [ 9.525714, 47.139857 ], [ 9.526005, 47.138249 ] ] } },
{ "type": "Feature", "properties": { "distance": 187.956359, "duration": 144.8898 }, "geometry": { "type": "LineString", "coordinates": [ [ 9.526005, 47.138249 ], [ 9.525714, 47.139857 ], [ 9.524859, 47.139163 ], [ 9.52154, 47.145007 ], [ 9.518651, 47.143022 ], [ 9.520878, 47.141125 ], [ 9.522112, 47.136888 ], [ 9.522093, 47.132708 ], [ 9.512871, 47.132745 ], [ 9.513492, 47.130592 ], [ 9.508404, 47.130236 ], [ 9.516394, 47.093055 ], [ 9.470512, 47.065464 ], [ 9.461205, 47.036499 ], [ 9.51287, 47.011699 ], [ 9.549865, 46.975685 ], [ 9.545835, 46.944249 ], [ 9.561082, 46.916488 ], [ 9.503796, 46.847128 ], [ 9.420351, 46.829906 ], [ 9.405715, 46.817993 ], [ 9.448528, 46.709465 ], [ 9.437423, 46.687074 ], [ 9.452281, 46.655345 ], [ 9.428059, 46.579275 ], [ 9.402272, 46.565881 ], [ 9.371793, 46.570742 ], [ 9.312518, 46.546883 ], [ 9.190018, 46.528142 ], [ 9.181147, 46.484316 ], [ 9.191824, 46.440708 ], [ 9.220079, 46.435221 ], [ 9.232756, 46.419846 ], [ 9.226335, 46.425157 ], [ 9.238735, 46.408154 ], [ 9.217601, 46.340266 ], [ 9.158745, 46.252537 ], [ 9.130822, 46.228951 ], [ 9.081901, 46.231698 ], [ 9.047916, 46.221757 ], [ 9.038539, 46.219834 ], [ 8.988833, 46.15719 ], [ 8.923082, 46.139262 ], [ 8.928348, 46.040596 ], [ 8.914839, 46.005432 ], [ 8.930506, 45.98841 ], [ 8.93071, 45.984968 ], [ 8.934727, 45.98558 ], [ 8.937287, 45.986192 ], [ 8.942848, 45.991499 ], [ 8.945085, 45.991244 ] ] } },
{ "type": "Feature", "properties": { "distance": 0.68461, "duration": 9.9349 }, "geometry": { "type": "LineString", "coordinates": [ [ 8.945085, 45.991244 ], [ 8.945281, 45.991235 ], [ 8.945334, 45.990697 ], [ 8.945791, 45.990673 ], [ 8.946587, 45.990538 ], [ 8.947011, 45.990523 ], [ 8.947008, 45.990489 ], [ 8.947123, 45.990425 ], [ 8.947112, 45.990254 ], [ 8.947166, 45.990253 ], [ 8.94714, 45.989611 ], [ 8.947277, 45.989267 ], [ 8.94743, 45.989057 ], [ 8.947399, 45.988895 ], [ 8.947588, 45.988892 ], [ 8.947935, 45.988962 ], [ 8.948174, 45.988853 ], [ 8.949003, 45.988858 ], [ 8.949933, 45.988783 ], [ 8.950281, 45.988642 ], [ 8.950446, 45.988509 ], [ 8.950489, 45.988388 ], [ 8.950408, 45.988265 ] ] } },
{ "type": "Feature", "properties": { "distance": 1.889451, "duration": 22.06065 }, "geometry": { "type": "LineString", "coordinates": [ [ 8.945085, 45.991244 ], [ 8.945281, 45.991235 ], [ 8.945081, 45.992845 ], [ 8.94614, 45.993166 ], [ 8.946315, 45.993515 ], [ 8.94609, 45.994727 ], [ 8.947628, 45.997838 ], [ 8.947881, 45.997792 ], [ 8.949877, 45.998909 ], [ 8.949709, 45.999735 ], [ 8.949851, 46.001087 ], [ 8.950641, 46.002592 ], [ 8.952603, 46.003427 ], [ 8.954929, 46.003677 ], [ 8.954915, 46.003737 ], [ 8.955473, 46.003849 ] ] } },
{ "type": "Feature", "properties": { "distance": 18.147611, "duration": 17.135266666666666 }, "geometry": { "type": "LineString", "coordinates": [ [ 8.945085, 45.991244 ], [ 8.945281, 45.991235 ], [ 8.945081, 45.992845 ], [ 8.94422, 45.992483 ], [ 8.937606, 45.986928 ], [ 8.932613, 45.982874 ], [ 8.925618, 45.968671 ], [ 8.925618, 45.965834 ], [ 8.929227, 45.96256 ], [ 8.942194, 45.960511 ], [ 8.950399, 45.955258 ], [ 8.962661, 45.953036 ], [ 8.966082, 45.95059 ], [ 8.966213, 45.941277 ], [ 8.973905, 45.935399 ], [ 8.98496, 45.916658 ], [ 8.983584, 45.907837 ], [ 8.975972, 45.893568 ], [ 8.980396, 45.883869 ], [ 8.980169, 45.878711 ], [ 8.975451, 45.874032 ], [ 8.974609, 45.873718 ], [ 8.975693, 45.877346 ], [ 8.977385, 45.877881 ], [ 8.980164, 45.877603 ], [ 8.981043, 45.87609 ], [ 8.97823, 45.874819 ], [ 8.978134, 45.874714 ] ] } },
{ "type": "Feature", "properties": { "distance": 14.529699, "duration": 27.2595 }, "geometry": { "type": "LineString", "coordinates": [ [ 8.978134, 45.874714 ], [ 8.978093, 45.874655 ], [ 8.978563, 45.87447 ], [ 8.979342, 45.874019 ], [ 8.978673, 45.873408 ], [ 8.977429, 45.873613 ], [ 8.975571, 45.873862 ], [ 8.971202, 45.867501 ], [ 8.970523, 45.863547 ], [ 8.972123, 45.859664 ], [ 8.986079, 45.848711 ], [ 8.993984, 45.846479 ], [ 9.001408, 45.843211 ], [ 9.015034, 45.843813 ], [ 9.02011, 45.840508 ], [ 9.021562, 45.839633 ], [ 9.032416, 45.838527 ], [ 9.033501, 45.838243 ], [ 9.034844, 45.837643 ], [ 9.034837, 45.8368 ], [ 9.036246, 45.835808 ], [ 9.0337, 45.832947 ], [ 9.033593, 45.832839 ], [ 9.035404, 45.831702 ], [ 9.042729, 45.827976 ], [ 9.047292, 45.827309 ], [ 9.05441, 45.823339 ], [ 9.05447, 45.823172 ], [ 9.054632, 45.821847 ], [ 9.059739, 45.81869 ], [ 9.06009, 45.817706 ], [ 9.062359, 45.816628 ], [ 9.065029, 45.81391 ], [ 9.068901, 45.811826 ], [ 9.069957, 45.812172 ], [ 9.071852, 45.812401 ], [ 9.073486, 45.811053 ], [ 9.076744, 45.807637 ], [ 9.078477, 45.808231 ], [ 9.0798, 45.806545 ], [ 9.081018, 45.806784 ], [ 9.082473, 45.805361 ], [ 9.085643, 45.80657 ] ] } },
{ "type": "Feature", "properties": { "distance": 29.288146, "duration": 56.358533333333334 }, "geometry": { "type": "LineString", "coordinates": [ [ 9.085643, 45.80657 ], [ 9.088503, 45.807986 ], [ 9.085534, 45.81171 ], [ 9.079006, 45.82347 ], [ 9.093405, 45.829543 ], [ 9.101307, 45.8361 ], [ 9.106468, 45.845604 ], [ 9.114298, 45.85147 ], [ 9.116065, 45.857564 ], [ 9.140753, 45.856839 ], [ 9.157711, 45.869513 ], [ 9.157819, 45.887464 ], [ 9.153261, 45.900803 ], [ 9.155828, 45.910208 ], [ 9.150111, 45.929129 ], [ 9.153323, 45.935642 ], [ 9.182432, 45.945013 ], [ 9.211389, 45.949285 ], [ 9.223351, 45.961325 ], [ 9.227341, 45.961769 ], [ 9.235005, 45.969496 ], [ 9.246006, 45.972106 ], [ 9.2482, 45.975657 ], [ 9.248514, 45.975724 ], [ 9.248513, 45.975581 ] ] } },
{ "type": "Feature", "properties": { "distance": 2.301234, "duration": 28.505016666666666 }, "geometry": { "type": "LineString", "coordinates": [ [ 9.248513, 45.975581 ], [ 9.248514, 45.975724 ], [ 9.250735, 45.97623 ], [ 9.253136, 45.976846 ], [ 9.253576, 45.977157 ], [ 9.257667, 45.976633 ], [ 9.258101, 45.97682 ], [ 9.259857, 45.976682 ], [ 9.260149, 45.977491 ], [ 9.260527, 45.977467 ], [ 9.26027, 45.977663 ], [ 9.261396, 45.978491 ], [ 9.261775, 45.979089 ], [ 9.262154, 45.979329 ], [ 9.261687, 45.980675 ], [ 9.261257, 45.981479 ], [ 9.261673, 45.983456 ], [ 9.261571, 45.984045 ], [ 9.262229, 45.98509 ], [ 9.262097, 45.985208 ], [ 9.262297, 45.985219 ], [ 9.262435, 45.986078 ], [ 9.262227, 45.986879 ], [ 9.262457, 45.98695 ], [ 9.262457, 45.98715 ], [ 9.262125, 45.987116 ] ] } },
{ "type": "Feature", "properties": { "distance": 0.980362, "duration": 13.223366666666667 }, "geometry": { "type": "LineString", "coordinates": [ [ 9.248513, 45.975581 ], [ 9.248514, 45.975724 ], [ 9.250735, 45.97623 ], [ 9.25286, 45.976775 ], [ 9.253107, 45.97668 ], [ 9.25342, 45.976857 ], [ 9.253722, 45.976847 ], [ 9.254481, 45.976632 ], [ 9.257189, 45.976138 ], [ 9.257603, 45.975978 ], [ 9.257916, 45.975502 ], [ 9.258165, 45.975344 ], [ 9.258749, 45.975165 ], [ 9.259732, 45.975012 ] ] } },
{ "type": "Feature", "properties": { "distance": 26.19016, "duration": 47.123383333333329 }, "geometry": { "type": "LineString", "coordinates": [ [ 9.248513, 45.975581 ], [ 9.248514, 45.975724 ], [ 9.253236, 45.976896 ], [ 9.254423, 45.979062 ], [ 9.26244, 45.977241 ], [ 9.262505, 45.97715 ], [ 9.260405, 45.972525 ], [ 9.262686, 45.972528 ], [ 9.265996, 45.970341 ], [ 9.267483, 45.967202 ], [ 9.266127, 45.959978 ], [ 9.274621, 45.954384 ], [ 9.276911, 45.950489 ], [ 9.279044, 45.943706 ], [ 9.282103, 45.940266 ], [ 9.28535, 45.92542 ], [ 9.292589, 45.915619 ], [ 9.294602, 45.910015 ], [ 9.301593, 45.902561 ], [ 9.310528, 45.898406 ], [ 9.315274, 45.891266 ], [ 9.324316, 45.885045 ], [ 9.331281, 45.884115 ], [ 9.350008, 45.874547 ], [ 9.357075, 45.872993 ], [ 9.364242, 45.863798 ], [ 9.365904, 45.858201 ], [ 9.365816, 45.85736 ], [ 9.371814, 45.857917 ], [ 9.374447, 45.856277 ], [ 9.375675, 45.852327 ], [ 9.386063, 45.848459 ], [ 9.386692, 45.847964 ], [ 9.386959, 45.8479 ], [ 9.392089, 45.846856 ], [ 9.396885, 45.843305 ], [ 9.393985, 45.835931 ], [ 9.396758, 45.836867 ], [ 9.397518, 45.838497 ], [ 9.401579, 45.839062 ], [ 9.405414, 45.839205 ], [ 9.405953, 45.839515 ], [ 9.40503, 45.841604 ], [ 9.408299, 45.841284 ], [ 9.410503, 45.839703 ], [ 9.410328, 45.845983 ], [ 9.406608, 45.843743 ] ] } },
{ "type": "Feature", "properties": { "distance": 38.691016, "duration": 56.8506 }, "geometry": { "type": "LineString", "coordinates": [ [ 9.406608, 45.843743 ], [ 9.406486, 45.843715 ], [ 9.408368, 45.841393 ], [ 9.410503, 45.839703 ], [ 9.416888, 45.828478 ], [ 9.418754, 45.819668 ], [ 9.42644, 45.80459 ], [ 9.437473, 45.793158 ], [ 9.439505, 45.790349 ], [ 9.440655, 45.787957 ], [ 9.441115, 45.784078 ], [ 9.445756, 45.765889 ], [ 9.454166, 45.757216 ], [ 9.454181, 45.757007 ], [ 9.45491, 45.756853 ], [ 9.469377, 45.748245 ], [ 9.469371, 45.742769 ], [ 9.470887, 45.740856 ], [ 9.485608, 45.737187 ], [ 9.493314, 45.732861 ], [ 9.524836, 45.730282 ], [ 9.551518, 45.724846 ], [ 9.555636, 45.719679 ], [ 9.559868, 45.71447 ], [ 9.5628, 45.711915 ], [ 9.56484, 45.709225 ], [ 9.559473, 45.70544 ], [ 9.560167, 45.698683 ], [ 9.556174, 45.693721 ], [ 9.558518, 45.688759 ], [ 9.57134, 45.684348 ], [ 9.578233, 45.673644 ], [ 9.601074, 45.67776 ], [ 9.629471, 45.682794 ], [ 9.645618, 45.67553 ], [ 9.68114, 45.675166 ], [ 9.683459, 45.675853 ], [ 9.691388, 45.663765 ], [ 9.690579, 45.664405 ], [ 9.691379, 45.664255 ], [ 9.692096, 45.663624 ], [ 9.69263, 45.663386 ], [ 9.693611, 45.663243 ], [ 9.693933, 45.664065 ] ] } },
{ "type": "Feature", "properties": { "distance": 83.893773, "duration": 65.58056666666667 }, "geometry": { "type": "LineString", "coordinates": [ [ 9.693933, 45.664065 ], [ 9.694253, 45.66497 ], [ 9.691949, 45.664501 ], [ 9.690342, 45.664498 ], [ 9.711747, 45.639031 ], [ 9.71294, 45.635917 ], [ 9.728059, 45.643213 ], [ 9.734734, 45.655029 ], [ 9.739105, 45.65345 ], [ 9.747458, 45.653843 ], [ 9.921333, 45.618283 ], [ 9.989531, 45.580627 ], [ 10.088034, 45.561708 ], [ 10.17233, 45.522312 ], [ 10.324119, 45.481806 ], [ 10.318417, 45.491373 ], [ 10.342864, 45.509753 ], [ 10.417593, 45.538083 ], [ 10.441318, 45.564003 ], [ 10.462162, 45.601595 ], [ 10.47921, 45.605289 ], [ 10.486083, 45.612115 ], [ 10.500554, 45.610427 ], [ 10.510076, 45.61175 ], [ 10.522903, 45.608608 ] ] } },
{ "type": "Feature", "properties": { "distance": 44.756852, "duration": 71.631433333333334 }, "geometry": { "type": "LineString", "coordinates": [ [ 10.522903, 45.608608 ], [ 10.55111, 45.614511 ], [ 10.575417, 45.625492 ], [ 10.584813, 45.626125 ], [ 10.593624, 45.633955 ], [ 10.605142, 45.636773 ], [ 10.608822, 45.640725 ], [ 10.613448, 45.642107 ], [ 10.642325, 45.661344 ], [ 10.651239, 45.670705 ], [ 10.65035, 45.674317 ], [ 10.668478, 45.694916 ], [ 10.700302, 45.712435 ], [ 10.715547, 45.727074 ], [ 10.734978, 45.73625 ], [ 10.745324, 45.747895 ], [ 10.749378, 45.758768 ], [ 10.776978, 45.781832 ], [ 10.776962, 45.787726 ], [ 10.791928, 45.811113 ], [ 10.79187, 45.81636 ], [ 10.822331, 45.829447 ], [ 10.83401, 45.854751 ], [ 10.837918, 45.887031 ], [ 10.83896, 45.887109 ], [ 10.839776, 45.886763 ], [ 10.839665, 45.888485 ], [ 10.843006, 45.889077 ], [ 10.8445, 45.888906 ], [ 10.844305, 45.888058 ], [ 10.8477, 45.88733 ], [ 10.847378, 45.886371 ], [ 10.847634, 45.886323 ] ] } },
{ "type": "Feature", "properties": { "distance": 3.837228, "duration": 73.408733333333345 }, "geometry": { "type": "LineString", "coordinates": [ [ 10.847634, 45.886323 ], [ 10.847378, 45.886371 ], [ 10.84767, 45.887239 ], [ 10.847549, 45.887305 ], [ 10.84758, 45.887407 ], [ 10.846155, 45.887689 ], [ 10.845905, 45.887719 ], [ 10.845463, 45.887806 ], [ 10.845363, 45.887826 ], [ 10.844383, 45.88804 ], [ 10.844183, 45.888077 ], [ 10.844131, 45.887972 ], [ 10.842862, 45.888428 ], [ 10.840222, 45.888552 ], [ 10.840229, 45.888653 ], [ 10.839555, 45.888677 ], [ 10.839549, 45.888975 ], [ 10.838731, 45.888972 ], [ 10.83774, 45.888349 ], [ 10.836941, 45.888537 ], [ 10.836674, 45.888498 ], [ 10.836301, 45.88826 ], [ 10.836329, 45.888015 ], [ 10.836098, 45.887728 ], [ 10.83554, 45.888199 ], [ 10.835194, 45.888798 ], [ 10.83511, 45.88876 ], [ 10.835056, 45.888284 ], [ 10.834687, 45.888601 ], [ 10.83477, 45.888017 ], [ 10.83503, 45.887768 ], [ 10.83525, 45.886883 ], [ 10.835168, 45.88633 ], [ 10.835059, 45.885907 ], [ 10.835093, 45.885557 ], [ 10.835194, 45.885453 ], [ 10.83559, 45.885111 ], [ 10.835668, 45.884808 ], [ 10.835525, 45.884858 ], [ 10.835413, 45.88471 ], [ 10.834979, 45.884642 ], [ 10.834604, 45.883953 ], [ 10.83417, 45.884534 ], [ 10.833803, 45.883936 ], [ 10.833804, 45.883638 ], [ 10.833921, 45.883512 ], [ 10.833799, 45.883523 ], [ 10.833722, 45.883209 ], [ 10.833399, 45.883516 ], [ 10.83325, 45.88356 ], [ 10.833446, 45.883077 ], [ 10.833324, 45.882813 ], [ 10.833763, 45.88206 ], [ 10.833675, 45.882054 ], [ 10.832844, 45.882555 ], [ 10.832447, 45.882644 ], [ 10.832433, 45.882854 ], [ 10.832211, 45.883216 ], [ 10.832194, 45.883647 ], [ 10.832029, 45.883481 ], [ 10.832004, 45.883301 ], [ 10.831924, 45.883319 ], [ 10.831895, 45.884097 ], [ 10.831787, 45.884312 ], [ 10.831865, 45.884639 ], [ 10.831724, 45.884949 ], [ 10.831267, 45.88453 ], [ 10.831215, 45.884802 ], [ 10.831046, 45.884679 ], [ 10.831019, 45.884725 ], [ 10.831028, 45.88513 ], [ 10.830596, 45.884493 ], [ 10.830443, 45.88515 ], [ 10.830117, 45.884686 ], [ 10.83027, 45.884516 ], [ 10.830275, 45.884186 ], [ 10.829911, 45.883716 ], [ 10.829528, 45.883647 ], [ 10.829463, 45.883277 ], [ 10.829328, 45.883282 ], [ 10.829258, 45.882917 ], [ 10.829407, 45.882543 ], [ 10.829718, 45.882305 ], [ 10.829438, 45.8823 ], [ 10.829786, 45.882052 ], [ 10.829748, 45.88203 ] ] } },
{ "type": "Feature", "properties": { "distance": 249.282734, "duration": 216.50816666666665 }, "geometry": { "type": "LineString", "coordinates": [ [ 10.847634, 45.886323 ], [ 10.847157, 45.885794 ], [ 10.847107, 45.885563 ], [ 10.85394, 45.882273 ], [ 10.870511, 45.87644 ], [ 10.875971, 45.870798 ], [ 10.888496, 45.878431 ], [ 10.896881, 45.878027 ], [ 10.931642, 45.855103 ], [ 10.979723, 45.84201 ], [ 11.000752, 45.849545 ], [ 11.001798, 45.846627 ], [ 11.015569, 45.892354 ], [ 11.040219, 45.917106 ], [ 11.079455, 45.927835 ], [ 11.098869, 45.944962 ], [ 11.120242, 45.996881 ], [ 11.121756, 46.030264 ], [ 11.082294, 46.128792 ], [ 11.093169, 46.157367 ], [ 11.148071, 46.224243 ], [ 11.220896, 46.256417 ], [ 11.27528, 46.330871 ], [ 11.315671, 46.426225 ], [ 11.30531, 46.46368 ], [ 11.330503, 46.485492 ], [ 11.425451, 46.489485 ], [ 11.476645, 46.514354 ], [ 11.513885, 46.550441 ], [ 11.542181, 46.618692 ], [ 11.60656, 46.658866 ], [ 11.647547, 46.70239 ], [ 11.636464, 46.759955 ], [ 11.643766, 46.764744 ], [ 11.64373, 46.765199 ], [ 11.668314, 46.77765 ], [ 11.665256, 46.791818 ], [ 11.686188, 46.812905 ], [ 11.709238, 46.817725 ], [ 11.829234, 46.808162 ], [ 11.86309, 46.790071 ], [ 11.91946, 46.780274 ], [ 11.995449, 46.792143 ], [ 12.048215, 46.761727 ], [ 12.09202, 46.760973 ], [ 12.133061, 46.743703 ], [ 12.220001, 46.728804 ], [ 12.223353, 46.729264 ], [ 12.22721, 46.730849 ], [ 12.251819, 46.726635 ], [ 12.283972, 46.736236 ], [ 12.31827, 46.729357 ], [ 12.42791, 46.751349 ], [ 12.492892, 46.749544 ], [ 12.559221, 46.760374 ], [ 12.730327, 46.794327 ], [ 12.757367, 46.827936 ], [ 12.753842, 46.831312 ], [ 12.760418, 46.83172 ], [ 12.77131, 46.832342 ], [ 12.770921, 46.837322 ], [ 12.770689, 46.837255 ] ] } },
{ "type": "Feature", "properties": { "distance": 53.048832, "duration": 62.353433333333335 }, "geometry": { "type": "LineString", "coordinates": [ [ 12.770689, 46.837255 ], [ 12.770921, 46.837322 ], [ 12.771562, 46.83203 ], [ 12.776171, 46.831961 ], [ 12.776636, 46.831246 ], [ 12.801104, 46.829688 ], [ 12.803734, 46.829922 ], [ 12.822783, 46.832785 ], [ 12.836981, 46.831098 ], [ 12.827966, 46.839751 ], [ 12.847677, 46.83348 ], [ 12.84087, 46.837504 ], [ 12.849345, 46.840357 ], [ 12.860725, 46.859111 ], [ 12.87006, 46.868532 ], [ 12.870609, 46.864802 ], [ 12.875814, 46.86206 ], [ 12.881793, 46.881684 ], [ 12.889472, 46.884539 ], [ 12.901418, 46.894581 ], [ 12.913013, 46.913992 ], [ 12.900536, 46.940342 ], [ 12.895028, 46.959456 ], [ 12.895879, 46.970114 ], [ 12.876977, 46.984931 ], [ 12.87423, 46.991118 ], [ 12.876442, 46.999613 ], [ 12.861931, 47.022491 ], [ 12.861329, 47.03059 ], [ 12.854573, 47.033802 ], [ 12.851417, 47.031983 ], [ 12.843217, 47.039809 ], [ 12.861366, 47.036411 ], [ 12.869519, 47.037199 ], [ 12.853348, 47.043313 ], [ 12.855685, 47.043847 ], [ 12.851428, 47.044612 ], [ 12.851557, 47.047239 ], [ 12.838751, 47.050741 ], [ 12.832413, 47.055474 ], [ 12.831869, 47.059422 ], [ 12.817902, 47.062941 ], [ 12.81943, 47.068502 ], [ 12.826024, 47.063159 ], [ 12.826072, 47.065128 ], [ 12.830429, 47.063609 ], [ 12.834455, 47.066975 ], [ 12.841947, 47.067069 ], [ 12.840242, 47.073136 ], [ 12.842538, 47.078086 ], [ 12.838398, 47.079055 ], [ 12.841473, 47.080603 ] ] } },
{ "type": "Feature", "properties": { "distance": 0.568443, "duration": 10.968283333333334 }, "geometry": { "type": "LineString", "coordinates": [ [ 12.841473, 47.080603 ], [ 12.842396, 47.080893 ], [ 12.842299, 47.080933 ], [ 12.842225, 47.080893 ], [ 12.84209, 47.080896 ], [ 12.842264, 47.081019 ], [ 12.842144, 47.080997 ], [ 12.842175, 47.081058 ], [ 12.84198, 47.081083 ], [ 12.842114, 47.081251 ], [ 12.841892, 47.081358 ], [ 12.841762, 47.081373 ], [ 12.841613, 47.081475 ], [ 12.841846, 47.081698 ], [ 12.842387, 47.081861 ], [ 12.842232, 47.081896 ], [ 12.842377, 47.081927 ], [ 12.842226, 47.081976 ], [ 12.842022, 47.082178 ], [ 12.842027, 47.082339 ], [ 12.841729, 47.08239 ], [ 12.841143, 47.082637 ], [ 12.840957, 47.082655 ], [ 12.84003, 47.083153 ] ] } },
{ "type": "Feature", "properties": { "distance": 26.679219, "duration": 37.1947 }, "geometry": { "type": "LineString", "coordinates": [ [ 12.841473, 47.080603 ], [ 12.842395, 47.084452 ], [ 12.839049, 47.086344 ], [ 12.840508, 47.086996 ], [ 12.837981, 47.087428 ], [ 12.837303, 47.091657 ], [ 12.833077, 47.096259 ], [ 12.837213, 47.100562 ], [ 12.832344, 47.112684 ], [ 12.830544, 47.112455 ], [ 12.833007, 47.117747 ], [ 12.826388, 47.116878 ], [ 12.823919, 47.115301 ], [ 12.823906, 47.116788 ], [ 12.828156, 47.117786 ], [ 12.827323, 47.119685 ], [ 12.824593, 47.118804 ], [ 12.822935, 47.121794 ], [ 12.820427, 47.121437 ], [ 12.819185, 47.124913 ], [ 12.815888, 47.126125 ], [ 12.815553, 47.12879 ], [ 12.813506, 47.125296 ], [ 12.812977, 47.12896 ], [ 12.809715, 47.121908 ], [ 12.807092, 47.130313 ], [ 12.809305, 47.135175 ], [ 12.807282, 47.133598 ], [ 12.810725, 47.140725 ], [ 12.815517, 47.143338 ], [ 12.813511, 47.146892 ], [ 12.816604, 47.153047 ], [ 12.812409, 47.149621 ], [ 12.813086, 47.152501 ], [ 12.809721, 47.149973 ], [ 12.811256, 47.154253 ], [ 12.814342, 47.155977 ], [ 12.812384, 47.157679 ], [ 12.815278, 47.162419 ], [ 12.81357, 47.169249 ], [ 12.822662, 47.181626 ], [ 12.826481, 47.191326 ], [ 12.83417, 47.198209 ], [ 12.831698, 47.21074 ], [ 12.827782, 47.216442 ], [ 12.826616, 47.226909 ], [ 12.826403, 47.22685 ] ] } },
{ "type": "Feature", "properties": { "distance": 1.017175, "duration": 17.32545 }, "geometry": { "type": "LineString", "coordinates": [ [ 12.826403, 47.22685 ], [ 12.82578, 47.226683 ], [ 12.825384, 47.226685 ], [ 12.824879, 47.226541 ], [ 12.824653, 47.22635 ], [ 12.824368, 47.225941 ], [ 12.823728, 47.225463 ], [ 12.823003, 47.225275 ], [ 12.822995, 47.224998 ], [ 12.823129, 47.224735 ], [ 12.823242, 47.224651 ], [ 12.822643, 47.22439 ], [ 12.82248, 47.224381 ], [ 12.822306, 47.224446 ], [ 12.822193, 47.224457 ], [ 12.821863, 47.224135 ], [ 12.821728, 47.224156 ], [ 12.821434, 47.224394 ], [ 12.821308, 47.224376 ], [ 12.821208, 47.224213 ], [ 12.821146, 47.224249 ], [ 12.821212, 47.224555 ], [ 12.821193, 47.224736 ], [ 12.8211, 47.224875 ], [ 12.821017, 47.224698 ], [ 12.820931, 47.224689 ], [ 12.820935, 47.224794 ], [ 12.820727, 47.224703 ], [ 12.820603, 47.22455 ], [ 12.820553, 47.22432 ], [ 12.820322, 47.223879 ], [ 12.820388, 47.223654 ], [ 12.820348, 47.223312 ], [ 12.820312, 47.22329 ], [ 12.820274, 47.223319 ], [ 12.820208, 47.223516 ], [ 12.820111, 47.223232 ], [ 12.819983, 47.223182 ], [ 12.819894, 47.223199 ], [ 12.819747, 47.223074 ] ] } },
{ "type": "Feature", "properties": { "distance": 27.828768, "duration": 29.607716666666665 }, "geometry": { "type": "LineString", "coordinates": [ [ 12.826403, 47.22685 ], [ 12.826616, 47.226909 ], [ 12.826983, 47.229783 ], [ 12.825146, 47.232849 ], [ 12.826303, 47.235673 ], [ 12.824366, 47.239205 ], [ 12.824726, 47.242273 ], [ 12.826881, 47.24444 ], [ 12.827812, 47.24911 ], [ 12.824911, 47.251466 ], [ 12.823714, 47.254582 ], [ 12.824988, 47.25642 ], [ 12.824509, 47.2587 ], [ 12.825615, 47.260436 ], [ 12.824141, 47.263741 ], [ 12.824041, 47.266554 ], [ 12.826485, 47.275084 ], [ 12.826152, 47.278051 ], [ 12.825098, 47.279181 ], [ 12.82415, 47.279084 ], [ 12.823877, 47.279639 ], [ 12.840746, 47.280254 ], [ 12.843129, 47.281268 ], [ 12.846369, 47.284588 ], [ 12.849154, 47.285504 ], [ 12.856779, 47.285002 ], [ 12.860493, 47.28411 ], [ 12.866233, 47.28454 ], [ 12.872249, 47.284086 ], [ 12.885946, 47.288145 ], [ 12.890061, 47.288122 ], [ 12.894422, 47.289046 ], [ 12.899839, 47.288622 ], [ 12.906286, 47.289297 ], [ 12.9155, 47.288726 ], [ 12.929192, 47.289633 ], [ 12.932586, 47.289076 ], [ 12.938407, 47.292054 ], [ 12.943713, 47.292483 ], [ 12.946754, 47.293382 ], [ 12.953338, 47.292797 ], [ 12.954872, 47.292316 ], [ 12.953786, 47.290677 ], [ 12.946252, 47.288445 ], [ 12.954143, 47.286598 ], [ 12.955064, 47.28522 ], [ 12.957304, 47.285976 ], [ 12.959573, 47.284942 ], [ 12.969496, 47.28483 ], [ 12.968002, 47.28245 ], [ 12.971308, 47.27981 ], [ 12.970501, 47.278399 ], [ 12.97256, 47.276697 ], [ 12.974005, 47.272749 ], [ 12.976195, 47.271357 ], [ 12.977213, 47.269526 ], [ 12.982811, 47.264679 ], [ 12.983403, 47.262696 ], [ 12.980746, 47.25913 ], [ 12.986166, 47.253908 ], [ 12.98623, 47.252415 ], [ 12.984195, 47.249451 ], [ 12.984915, 47.246477 ], [ 12.985961, 47.244855 ], [ 12.989385, 47.24232 ], [ 12.992307, 47.236836 ], [ 12.990025, 47.229071 ], [ 12.990635, 47.226421 ], [ 12.992728, 47.224333 ], [ 12.991634, 47.223846 ], [ 12.991179, 47.22282 ], [ 12.991072, 47.222622 ] ] } },
{ "type": "Feature", "properties": { "distance": 27.581422, "duration": 29.319416666666665 }, "geometry": { "type": "LineString", "coordinates": [ [ 12.826403, 47.22685 ], [ 12.826616, 47.226909 ], [ 12.826983, 47.229783 ], [ 12.825146, 47.232849 ], [ 12.826303, 47.235673 ], [ 12.824366, 47.239205 ], [ 12.824726, 47.242273 ], [ 12.826881, 47.24444 ], [ 12.827812, 47.24911 ], [ 12.824911, 47.251466 ], [ 12.823714, 47.254582 ], [ 12.824988, 47.25642 ], [ 12.824509, 47.2587 ], [ 12.825615, 47.260436 ], [ 12.824141, 47.263741 ], [ 12.824041, 47.266554 ], [ 12.826485, 47.275084 ], [ 12.826152, 47.278051 ], [ 12.825098, 47.279181 ], [ 12.82415, 47.279084 ], [ 12.823877, 47.279639 ], [ 12.840746, 47.280254 ], [ 12.843129, 47.281268 ], [ 12.846369, 47.284588 ], [ 12.849154, 47.285504 ], [ 12.856779, 47.285002 ], [ 12.860493, 47.28411 ], [ 12.866233, 47.28454 ], [ 12.872249, 47.284086 ], [ 12.885946, 47.288145 ], [ 12.890061, 47.288122 ], [ 12.894422, 47.289046 ], [ 12.899839, 47.288622 ], [ 12.906286, 47.289297 ], [ 12.9155, 47.288726 ], [ 12.929192, 47.289633 ], [ 12.932586, 47.289076 ], [ 12.938407, 47.292054 ], [ 12.943713, 47.292483 ], [ 12.946754, 47.293382 ], [ 12.953338, 47.292797 ], [ 12.954872, 47.292316 ], [ 12.953786, 47.290677 ], [ 12.946252, 47.288445 ], [ 12.954143, 47.286598 ], [ 12.955064, 47.28522 ], [ 12.957304, 47.285976 ], [ 12.959573, 47.284942 ], [ 12.969496, 47.28483 ], [ 12.968002, 47.28245 ], [ 12.971308, 47.27981 ], [ 12.970501, 47.278399 ], [ 12.97256, 47.276697 ], [ 12.974005, 47.272749 ], [ 12.976195, 47.271357 ], [ 12.977213, 47.269526 ], [ 12.982811, 47.264679 ], [ 12.983403, 47.262696 ], [ 12.980733, 47.259196 ], [ 12.98628, 47.253643 ], [ 12.986134, 47.252219 ], [ 12.984221, 47.249595 ], [ 12.984915, 47.246477 ], [ 12.985961, 47.244855 ], [ 12.989385, 47.24232 ], [ 12.992369, 47.236621 ], [ 12.990066, 47.229727 ], [ 12.990685, 47.226339 ], [ 12.994267, 47.226936 ], [ 12.994256, 47.22714 ] ] } },
{ "type": "Feature", "properties": { "distance": 32.390152, "duration": 449.69836666666663 }, "geometry": { "type": "LineString", "coordinates": [ [ 12.826403, 47.22685 ], [ 12.826616, 47.226909 ], [ 12.826983, 47.229783 ], [ 12.825146, 47.232849 ], [ 12.826303, 47.235673 ], [ 12.824366, 47.239205 ], [ 12.824726, 47.242273 ], [ 12.826881, 47.24444 ], [ 12.827812, 47.24911 ], [ 12.824911, 47.251466 ], [ 12.823914, 47.253866 ], [ 12.824, 47.25388 ], [ 12.825139, 47.256609 ], [ 12.824642, 47.258807 ], [ 12.825738, 47.260169 ], [ 12.824245, 47.263737 ], [ 12.824104, 47.26654 ], [ 12.824868, 47.267608 ], [ 12.824787, 47.267628 ], [ 12.826485, 47.275084 ], [ 12.826152, 47.278051 ], [ 12.827829, 47.277943 ], [ 12.828319, 47.278513 ], [ 12.828814, 47.278457 ], [ 12.831299, 47.280087 ], [ 12.834256, 47.27999 ], [ 12.834373, 47.279929 ], [ 12.834515, 47.27999 ], [ 12.835518, 47.280057 ], [ 12.836283, 47.280137 ], [ 12.839542, 47.280042 ], [ 12.842074, 47.280691 ], [ 12.846369, 47.284588 ], [ 12.848646, 47.285439 ], [ 12.85619, 47.285072 ], [ 12.860715, 47.284097 ], [ 12.866233, 47.28454 ], [ 12.872249, 47.284086 ], [ 12.885123, 47.28801 ], [ 12.890061, 47.288122 ], [ 12.894422, 47.289046 ], [ 12.899839, 47.288622 ], [ 12.905744, 47.289272 ], [ 12.9155, 47.288726 ], [ 12.929192, 47.289633 ], [ 12.932276, 47.289063 ], [ 12.932245, 47.28899 ], [ 12.931098, 47.288907 ], [ 12.931379, 47.288829 ], [ 12.931261, 47.288533 ], [ 12.931248, 47.287897 ], [ 12.934126, 47.287953 ], [ 12.936474, 47.290231 ], [ 12.939938, 47.291532 ], [ 12.946514, 47.291351 ], [ 12.950561, 47.289707 ], [ 12.946183, 47.2885 ], [ 12.954143, 47.286598 ], [ 12.95491, 47.285244 ], [ 12.957576, 47.285968 ], [ 12.959573, 47.284942 ], [ 12.969612, 47.284743 ], [ 12.968002, 47.28245 ], [ 12.971308, 47.27981 ], [ 12.970501, 47.278399 ], [ 12.97256, 47.276697 ], [ 12.974005, 47.272749 ], [ 12.976295, 47.271259 ], [ 12.979761, 47.26701 ], [ 12.981697, 47.266151 ], [ 12.98342, 47.263418 ], [ 12.982969, 47.261667 ], [ 12.980733, 47.259196 ], [ 12.98628, 47.253643 ], [ 12.984189, 47.249363 ], [ 12.985961, 47.244855 ], [ 12.98438, 47.240047 ], [ 12.984917, 47.238611 ], [ 12.987016, 47.23727 ], [ 12.985473, 47.236622 ], [ 12.981366, 47.2365 ], [ 12.984891, 47.233463 ], [ 12.982513, 47.233182 ], [ 12.981656, 47.233612 ], [ 12.984655, 47.229555 ], [ 12.983502, 47.228603 ], [ 12.981262, 47.230228 ], [ 12.979554, 47.228626 ], [ 12.979851, 47.228836 ], [ 12.97464, 47.22923 ], [ 12.970167, 47.230919 ], [ 12.970869, 47.229738 ], [ 12.965595, 47.229253 ], [ 12.965321, 47.228018 ], [ 12.964274, 47.228265 ], [ 12.962822, 47.229504 ], [ 12.960041, 47.229854 ], [ 12.961526, 47.228898 ], [ 12.958021, 47.230361 ], [ 12.959849, 47.228511 ], [ 12.959388, 47.227585 ], [ 12.953138, 47.22672 ], [ 12.949456, 47.225162 ], [ 12.950931, 47.223155 ], [ 12.954553, 47.222227 ], [ 12.956638, 47.220763 ], [ 12.957091, 47.220538 ] ] } },
{ "type": "Feature", "properties": { "distance": 0.875602, "duration": 10.803483333333332 }, "geometry": { "type": "LineString", "coordinates": [ [ 12.994256, 47.22714 ], [ 12.994372, 47.225546 ], [ 12.994325, 47.22543 ], [ 12.994499, 47.225444 ], [ 12.994998, 47.225625 ], [ 12.995612, 47.225991 ], [ 12.996494, 47.226103 ], [ 12.996753, 47.226171 ], [ 12.997282, 47.22652 ], [ 12.997378, 47.226961 ], [ 12.997187, 47.226982 ], [ 12.997089, 47.227038 ], [ 12.996887, 47.227257 ], [ 12.996722, 47.227902 ], [ 12.996743, 47.228097 ], [ 12.996843, 47.228097 ], [ 12.996935, 47.228926 ], [ 12.997053, 47.22938 ], [ 12.997162, 47.229598 ], [ 12.997284, 47.229698 ], [ 12.997666, 47.2296 ] ] } },
{ "type": "Feature", "properties": { "distance": 93.940852, "duration": 85.335766666666657 }, "geometry": { "type": "LineString", "coordinates": [ [ 12.994256, 47.22714 ], [ 12.994267, 47.226936 ], [ 12.990685, 47.226339 ], [ 12.979529, 47.267221 ], [ 12.97858, 47.283125 ], [ 13.02593, 47.302128 ], [ 13.032896, 47.300734 ], [ 13.025454, 47.305742 ], [ 13.050907, 47.294161 ], [ 13.083108, 47.297532 ], [ 13.139622, 47.323766 ], [ 13.185566, 47.329499 ], [ 13.226516, 47.396458 ], [ 13.223825, 47.437681 ], [ 13.22373, 47.437842 ], [ 13.172989, 47.508868 ], [ 13.170892, 47.569916 ], [ 13.132297, 47.628206 ], [ 13.136147, 47.653454 ], [ 13.095103, 47.724799 ], [ 13.001517, 47.761308 ], [ 12.980576, 47.78026 ], [ 13.009591, 47.822809 ], [ 13.012081, 47.823588 ], [ 13.018245, 47.818973 ], [ 13.026504, 47.821943 ], [ 13.026892, 47.821224 ] ] } },
{ "type": "Feature", "properties": { "distance": 2.249613, "duration": 8.6769333333333325 }, "geometry": { "type": "LineString", "coordinates": [ [ 13.026892, 47.821224 ], [ 13.02948, 47.816293 ], [ 13.029901, 47.815618 ], [ 13.030865, 47.814532 ], [ 13.033446, 47.814817 ], [ 13.034263, 47.814629 ], [ 13.034501, 47.81466 ], [ 13.034771, 47.814542 ], [ 13.035859, 47.81462 ], [ 13.035952, 47.814278 ], [ 13.037339, 47.814303 ], [ 13.037302, 47.814632 ], [ 13.037363, 47.814635 ], [ 13.037411, 47.814229 ], [ 13.04179, 47.814195 ], [ 13.043514, 47.813998 ], [ 13.043777, 47.814888 ], [ 13.044854, 47.814532 ], [ 13.044234, 47.813766 ], [ 13.045072, 47.813481 ], [ 13.044996, 47.813387 ] ] } },
{ "type": "Feature", "properties": { "distance": 3.339519, "duration": 15.266983333333334 }, "geometry": { "type": "LineString", "coordinates": [ [ 13.026892, 47.821224 ], [ 13.028191, 47.81876 ], [ 13.029541, 47.820424 ], [ 13.031292, 47.821364 ], [ 13.030924, 47.822103 ], [ 13.032185, 47.823396 ], [ 13.032498, 47.82314 ], [ 13.036718, 47.82416 ], [ 13.034921, 47.826703 ], [ 13.036806, 47.827245 ], [ 13.037222, 47.827419 ], [ 13.037279, 47.827429 ], [ 13.037347, 47.827457 ], [ 13.03844, 47.827763 ], [ 13.039867, 47.829611 ], [ 13.039796, 47.833613 ], [ 13.040726, 47.835176 ], [ 13.041534, 47.835623 ], [ 13.041526, 47.837915 ], [ 13.04165, 47.838539 ], [ 13.040575, 47.838675 ], [ 13.040429, 47.838437 ] ] } },
{ "type": "Feature", "properties": { "distance": 4.044822, "duration": 14.182433333333334 }, "geometry": { "type": "LineString", "coordinates": [ [ 13.026892, 47.821224 ], [ 13.028014, 47.819084 ], [ 13.023664, 47.813689 ], [ 13.022319, 47.812787 ], [ 13.022314, 47.812793 ], [ 13.021513, 47.811676 ], [ 13.020763, 47.809574 ], [ 13.020825, 47.809456 ], [ 13.020945, 47.809045 ], [ 13.019532, 47.807501 ], [ 13.01904, 47.80636 ], [ 13.018591, 47.806371 ], [ 13.018517, 47.804469 ], [ 13.018458, 47.804301 ], [ 13.018921, 47.802271 ], [ 13.01841, 47.801912 ], [ 13.015165, 47.801621 ], [ 13.007859, 47.798429 ], [ 13.007931, 47.798361 ], [ 13.007785, 47.79825 ], [ 13.005608, 47.797465 ], [ 13.008261, 47.79327 ] ] } },
{ "type": "Feature", "properties": { "distance": 57.752859, "duration": 47.473316666666662 }, "geometry": { "type": "LineString", "coordinates": [ [ 13.026892, 47.821224 ], [ 13.026504, 47.821943 ], [ 13.018245, 47.818973 ], [ 13.013902, 47.823698 ], [ 13.007846, 47.821985 ], [ 12.996484, 47.810307 ], [ 12.982969, 47.792335 ], [ 12.980325, 47.780152 ], [ 12.977214, 47.773037 ], [ 12.968746, 47.769281 ], [ 12.909321, 47.766068 ], [ 12.898767, 47.768209 ], [ 12.836144, 47.811197 ], [ 12.82219, 47.82459 ], [ 12.810782, 47.82897 ], [ 12.755873, 47.826438 ], [ 12.73735, 47.831244 ], [ 12.699299, 47.828908 ], [ 12.676707, 47.824401 ], [ 12.654507, 47.82536 ], [ 12.63478, 47.829307 ], [ 12.600747, 47.828241 ], [ 12.598466, 47.828236 ], [ 12.596043, 47.82866 ], [ 12.595723, 47.834714 ], [ 12.607798, 47.843534 ], [ 12.596538, 47.85068 ], [ 12.583516, 47.867879 ], [ 12.584771, 47.869263 ], [ 12.587333, 47.881131 ], [ 12.549127, 47.90105 ], [ 12.513067, 47.91831 ], [ 12.495061, 47.923041 ], [ 12.489768, 47.931004 ], [ 12.478042, 47.934096 ] ] } },
{ "type": "Feature", "properties": { "distance": 102.976812, "duration": 90.34135 }, "geometry": { "type": "LineString", "coordinates": [ [ 12.478042, 47.934096 ], [ 12.477576, 47.936394 ], [ 12.473577, 47.936287 ], [ 12.460709, 47.944707 ], [ 12.463479, 47.952109 ], [ 12.452633, 47.965014 ], [ 12.419202, 47.99087 ], [ 12.429077, 48.003158 ], [ 12.415306, 48.011799 ], [ 12.391483, 48.011244 ], [ 12.365914, 48.030175 ], [ 12.3452, 48.033209 ], [ 12.331545, 48.044531 ], [ 12.297503, 48.040048 ], [ 12.275108, 48.056182 ], [ 12.235915, 48.068041 ], [ 12.209458, 48.067611 ], [ 12.190354, 48.058078 ], [ 12.167092, 48.063701 ], [ 12.158031, 48.086929 ], [ 12.131799, 48.097413 ], [ 12.119264, 48.110466 ], [ 12.111305, 48.114652 ], [ 12.096678, 48.115114 ], [ 12.080054, 48.128002 ], [ 12.043856, 48.129153 ], [ 12.031396, 48.136144 ], [ 12.032628, 48.140031 ], [ 12.011271, 48.149692 ], [ 11.987144, 48.155322 ], [ 11.93577, 48.165023 ], [ 11.914053, 48.182681 ], [ 11.877927, 48.165085 ], [ 11.833226, 48.15934 ], [ 11.765568, 48.142554 ], [ 11.761264, 48.142774 ], [ 11.721497, 48.183763 ], [ 11.661988, 48.202237 ], [ 11.623374, 48.223743 ], [ 11.597539, 48.228836 ], [ 11.550057, 48.226696 ], [ 11.536614, 48.239551 ], [ 11.532851, 48.252429 ], [ 11.534256, 48.252288 ], [ 11.474583, 48.2559 ], [ 11.470525, 48.256039 ], [ 11.471012, 48.266491 ], [ 11.470506, 48.266443 ], [ 11.469542, 48.265939 ], [ 11.469496, 48.266133 ] ] } },
{ "type": "Feature", "properties": { "distance": 5.72918, "duration": 8.8779833333333329 }, "geometry": { "type": "LineString", "coordinates": [ [ 11.469496, 48.266133 ], [ 11.469542, 48.265939 ], [ 11.470506, 48.266443 ], [ 11.471012, 48.266491 ], [ 11.469566, 48.273438 ], [ 11.466882, 48.278471 ], [ 11.458918, 48.283073 ], [ 11.462335, 48.284069 ], [ 11.468617, 48.287453 ], [ 11.472981, 48.290782 ], [ 11.477029, 48.292212 ], [ 11.481463, 48.29577 ], [ 11.484152, 48.299961 ], [ 11.486929, 48.301827 ], [ 11.487309, 48.303607 ], [ 11.488576, 48.304334 ] ] } },
{ "type": "Feature", "properties": { "distance": 24.392098, "duration": 22.367283333333333 }, "geometry": { "type": "LineString", "coordinates": [ [ 11.488576, 48.304334 ], [ 11.488691, 48.304518 ], [ 11.49073, 48.303693 ], [ 11.49275, 48.296743 ], [ 11.494452, 48.295988 ], [ 11.530509, 48.303365 ], [ 11.533536, 48.306063 ], [ 11.540627, 48.307573 ], [ 11.548745, 48.312097 ], [ 11.555023, 48.309817 ], [ 11.559708, 48.310253 ], [ 11.572386, 48.304265 ], [ 11.57876, 48.29481 ], [ 11.581587, 48.297344 ], [ 11.642818, 48.326258 ], [ 11.664532, 48.331569 ], [ 11.700754, 48.334365 ], [ 11.708211, 48.337423 ], [ 11.721553, 48.347158 ], [ 11.729104, 48.350624 ], [ 11.736606, 48.35055 ], [ 11.747757, 48.351387 ], [ 11.750969, 48.351479 ], [ 11.750455, 48.354413 ], [ 11.749064, 48.353438 ], [ 11.749302, 48.353456 ] ] } }
]
}
